[{"OBJECT_NAME":"STARLINK-5363","OBJECT_ID":"2023-015BA","EPOCH":"2026-03-09T22:00:01.999584","MEAN_MOTION":15.07334825,"ECCENTRICITY":0.00022891,"INCLINATION":43.0004,"RA_OF_ASC_NODE":337.3819,"ARG_OF_PERICENTER":248.6523,"MEAN_ANOMALY":64.4241,"EPHEMERIS_TYPE":0,"CLASSIFICATION_TYPE":"U","NORAD_CAT_ID":55497,"ELEMENT_SET_NO":999,"REV_AT_EPOCH":577,"BSTAR":0.0035883023,"MEAN_MOTION_DOT":0.00055361,"MEAN_MOTION_DDOT":0},{"OBJECT_NAME":"CZ-4B DEB","OBJECT_ID":"2004-035K","EPOCH":"2026-03-08T06:51:30.377664","MEAN_MOTION":15.09293825,"ECCENTRICITY":0.00031468,"INCLINATION":97.5843,"RA_OF_ASC_NODE":91.2716,"ARG_OF_PERICENTER":107.6302,"MEAN_ANOMALY":252.527,"EPHEMERIS_TYPE":0,"CLASSIFICATION_TYPE":"U","NORAD_CAT_ID":29043,"ELEMENT_SET_NO":999,"REV_AT_EPOCH":10418,"BSTAR":0.00031897975,"MEAN_MOTION_DOT":5.021e-5,"MEAN_MOTION_DDOT":0}]
